[{"OBJECT_NAME":"STARLINK-2116","OBJECT_ID":"2021-017C","EPOCH":"2026-03-03T00:00:02.000160","MEAN_MOTION":15.79653295,"ECCENTRICITY":0.00050718,"INCLINATION":53.0398,"RA_OF_ASC_NODE":117.8496,"ARG_OF_PERICENTER":288.7785,"MEAN_ANOMALY":233.8238,"EPHEMERIS_TYPE":0,"CLASSIFICATION_TYPE":"U","NORAD_CAT_ID":47724,"ELEMENT_SET_NO":999,"REV_AT_EPOCH":592,"BSTAR":0.0012091308,"MEAN_MOTION_DOT":0.00231308,"MEAN_MOTION_DDOT":0},{"OBJECT_NAME":"STARLINK-2131","OBJECT_ID":"2021-017G","EPOCH":"2026-03-02T19:19:40.779840","MEAN_MOTION":15.0639444,"ECCENTRICITY":0.00014101,"INCLINATION":53.0546,"RA_OF_ASC_NODE":232.5222,"ARG_OF_PERICENTER":85.4967,"MEAN_ANOMALY":274.6183,"EPHEMERIS_TYPE":0,"CLASSIFICATION_TYPE":"U","NORAD_CAT_ID":47728,"ELEMENT_SET_NO":999,"REV_AT_EPOCH":27688,"BSTAR":0.00018763126,"MEAN_MOTION_DOT":2.514e-5,"MEAN_MOTION_DDOT":0},{"OBJECT_NAME":"STARLINK-2140","OBJECT_ID":"2021-017J","EPOCH":"2026-03-02T19:51:06.522912","MEAN_MOTION":15.07061992,"ECCENTRICITY":0.00017593,"INCLINATION":53.0569,"RA_OF_ASC_NODE":247.4278,"ARG_OF_PERICENTER":114.469,"MEAN_ANOMALY":245.6483,"EPHEMERIS_TYPE":0,"CLASSIFICATION_TYPE":"U","NORAD_CAT_ID":47730,"ELEMENT_SET_NO":999,"REV_AT_EPOCH":27662,"BSTAR":0.0054270574,"MEAN_MOTION_DOT":0.00082987,"MEAN_MOTION_DDOT":0},{"OBJECT_NAME":"STARLINK-2141","OBJECT_ID":"2021-017K","EPOCH":"2026-03-02T20:34:14.713536","MEAN_MOTION":15.30592605,"ECCENTRICITY":9.769e-5,"INCLINATION":53.1578,"RA_OF_ASC_NODE":235.9759,"ARG_OF_PERICENTER":108.5892,"MEAN_ANOMALY":251.5215,"EPHEMERIS_TYPE":0,"CLASSIFICATION_TYPE":"U","NORAD_CAT_ID":47731,"ELEMENT_SET_NO":999,"REV_AT_EPOCH":27680,"BSTAR":0.004401721,"MEAN_MOTION_DOT":0.00134,"MEAN_MOTION_DDOT":0},{"OBJECT_NAME":"STARLINK-2143","OBJECT_ID":"2021-017M","EPOCH":"2026-03-02T21:31:20.211744","MEAN_MOTION":15.30189189,"ECCENTRICITY":0.00012235,"INCLINATION":53.1609,"RA_OF_ASC_NODE":248.2765,"ARG_OF_PERICENTER":92.3132,"MEAN_ANOMALY":267.8009,"EPHEMERIS_TYPE":0,"CLASSIFICATION_TYPE":"U","NORAD_CAT_ID":47733,"ELEMENT_SET_NO":999,"REV_AT_EPOCH":27667,"BSTAR":4.1575273e-5,"MEAN_MOTION_DOT":8.72e-6,"MEAN_MOTION_DDOT":0},{"OBJECT_NAME":"STARLINK-2144","OBJECT_ID":"2021-017N","EPOCH":"2026-03-02T18:19:22.914624","MEAN_MOTION":15.30193951,"ECCENTRICITY":7.587e-5,"INCLINATION":53.1577,"RA_OF_ASC_NODE":236.059,"ARG_OF_PERICENTER":88.1315,"MEAN_ANOMALY":271.9772,"EPHEMERIS_TYPE":0,"CLASSIFICATION_TYPE":"U","NORAD_CAT_ID":47734,"ELEMENT_SET_NO":999,"REV_AT_EPOCH":27680,"BSTAR":8.6758215e-5,"MEAN_MOTION_DOT":2.211e-5,"MEAN_MOTION_DDOT":0},{"OBJECT_NAME":"STARLINK-2147","OBJECT_ID":"2021-017Q","EPOCH":"2026-03-02T19:24:58.795776","MEAN_MOTION":15.06401285,"ECCENTRICITY":0.00014048,"INCLINATION":53.0547,"RA_OF_ASC_NODE":232.5063,"ARG_OF_PERICENTER":93.4431,"MEAN_ANOMALY":266.6719,"EPHEMERIS_TYPE":0,"CLASSIFICATION_TYPE":"U","NORAD_CAT_ID":47736,"ELEMENT_SET_NO":999,"REV_AT_EPOCH":27688,"BSTAR":9.5177448e-5,"MEAN_MOTION_DOT":1.137e-5,"MEAN_MOTION_DDOT":0},{"OBJECT_NAME":"STARLINK-2150","OBJECT_ID":"2021-017T","EPOCH":"2026-03-02T21:24:35.561664","MEAN_MOTION":15.30204788,"ECCENTRICITY":0.00013054,"INCLINATION":53.1573,"RA_OF_ASC_NODE":250.8032,"ARG_OF_PERICENTER":95.8274,"MEAN_ANOMALY":264.2875,"EPHEMERIS_TYPE":0,"CLASSIFICATION_TYPE":"U","NORAD_CAT_ID":47739,"ELEMENT_SET_NO":999,"REV_AT_EPOCH":27664,"BSTAR":9.2665172e-5,"MEAN_MOTION_DOT":2.387e-5,"MEAN_MOTION_DDOT":0},{"OBJECT_NAME":"STARLINK-2156","OBJECT_ID":"2021-017W","EPOCH":"2026-03-02T19:55:08.857632","MEAN_MOTION":15.3018749,"ECCENTRICITY":0.00012755,"INCLINATION":53.1594,"RA_OF_ASC_NODE":226.0406,"ARG_OF_PERICENTER":82.2897,"MEAN_ANOMALY":277.8248,"EPHEMERIS_TYPE":0,"CLASSIFICATION_TYPE":"U","NORAD_CAT_ID":47742,"ELEMENT_SET_NO":999,"REV_AT_EPOCH":27698,"BSTAR":-5.836855e-5,"MEAN_MOTION_DOT":-2.087e-5,"MEAN_MOTION_DDOT":0},{"OBJECT_NAME":"STARLINK-2159","OBJECT_ID":"2021-017Z","EPOCH":"2026-03-02T21:35:01.355136","MEAN_MOTION":15.30662508,"ECCENTRICITY":0.00010254,"INCLINATION":53.1585,"RA_OF_ASC_NODE":236.0904,"ARG_OF_PERICENTER":165.4359,"MEAN_ANOMALY":194.6671,"EPHEMERIS_TYPE":0,"CLASSIFICATION_TYPE":"U","NORAD_CAT_ID":47745,"ELEMENT_SET_NO":999,"REV_AT_EPOCH":27679,"BSTAR":0.0075872538,"MEAN_MOTION_DOT":0.00234926,"MEAN_MOTION_DDOT":0},{"OBJECT_NAME":"STARLINK-2160","OBJECT_ID":"2021-017AA","EPOCH":"2026-03-02T20:39:03.219552","MEAN_MOTION":15.30190924,"ECCENTRICITY":0.0001983,"INCLINATION":53.1605,"RA_OF_ASC_NODE":235.9595,"ARG_OF_PERICENTER":61.678,"MEAN_ANOMALY":298.4421,"EPHEMERIS_TYPE":0,"CLASSIFICATION_TYPE":"U","NORAD_CAT_ID":47746,"ELEMENT_SET_NO":999,"REV_AT_EPOCH":27678,"BSTAR":1.2656765e-5,"MEAN_MOTION_DOT":1.5e-7,"MEAN_MOTION_DDOT":0},{"OBJECT_NAME":"STARLINK-2161","OBJECT_ID":"2021-017AB","EPOCH":"2026-03-02T18:11:54.805344","MEAN_MOTION":15.30200198,"ECCENTRICITY":0.00012227,"INCLINATION":53.1604,"RA_OF_ASC_NODE":226.0906,"ARG_OF_PERICENTER":104.5316,"MEAN_ANOMALY":255.5821,"EPHEMERIS_TYPE":0,"CLASSIFICATION_TYPE":"U","NORAD_CAT_ID":47747,"ELEMENT_SET_NO":999,"REV_AT_EPOCH":27695,"BSTAR":-6.1361094e-5,"MEAN_MOTION_DOT":-2.176e-5,"MEAN_MOTION_DDOT":0},{"OBJECT_NAME":"STARLINK-2162","OBJECT_ID":"2021-017AC","EPOCH":"2026-03-02T20:11:30.941376","MEAN_MOTION":15.30580601,"ECCENTRICITY":9.506e-5,"INCLINATION":53.1589,"RA_OF_ASC_NODE":225.3075,"ARG_OF_PERICENTER":143.8265,"MEAN_ANOMALY":216.28,"EPHEMERIS_TYPE":0,"CLASSIFICATION_TYPE":"U","NORAD_CAT_ID":47748,"ELEMENT_SET_NO":999,"REV_AT_EPOCH":27694,"BSTAR":0.0065674274,"MEAN_MOTION_DOT":0.00201878,"MEAN_MOTION_DDOT":0},{"OBJECT_NAME":"STARLINK-2163","OBJECT_ID":"2021-017AD","EPOCH":"2026-03-02T16:13:07.064544","MEAN_MOTION":15.31035858,"ECCENTRICITY":0.00010833,"INCLINATION":53.1587,"RA_OF_ASC_NODE":226.8736,"ARG_OF_PERICENTER":90.2041,"MEAN_ANOMALY":269.9085,"EPHEMERIS_TYPE":0,"CLASSIFICATION_TYPE":"U","NORAD_CAT_ID":47749,"ELEMENT_SET_NO":999,"REV_AT_EPOCH":27690,"BSTAR":5.0266515e-5,"MEAN_MOTION_DOT":1.166e-5,"MEAN_MOTION_DDOT":0},{"OBJECT_NAME":"STARLINK-2164","OBJECT_ID":"2021-017AE","EPOCH":"2026-03-02T18:30:01.839168","MEAN_MOTION":15.30188286,"ECCENTRICITY":0.00012661,"INCLINATION":53.1595,"RA_OF_ASC_NODE":225.6546,"ARG_OF_PERICENTER":95.4075,"MEAN_ANOMALY":264.707,"EPHEMERIS_TYPE":0,"CLASSIFICATION_TYPE":"U","NORAD_CAT_ID":47750,"ELEMENT_SET_NO":999,"REV_AT_EPOCH":27693,"BSTAR":2.5280084e-5,"MEAN_MOTION_DOT":3.89e-6,"MEAN_MOTION_DDOT":0},{"OBJECT_NAME":"STARLINK-2169","OBJECT_ID":"2021-017AG","EPOCH":"2026-03-03T00:00:02.000160","MEAN_MOTION":15.28044835,"ECCENTRICITY":0.00013446,"INCLINATION":53.1476,"RA_OF_ASC_NODE":234.8653,"ARG_OF_PERICENTER":91.0485,"MEAN_ANOMALY":83.7821,"EPHEMERIS_TYPE":0,"CLASSIFICATION_TYPE":"U","NORAD_CAT_ID":47752,"ELEMENT_SET_NO":999,"REV_AT_EPOCH":574,"BSTAR":0.0046447309,"MEAN_MOTION_DOT":0.0013069,"MEAN_MOTION_DDOT":0},{"OBJECT_NAME":"STARLINK-2170","OBJECT_ID":"2021-017AH","EPOCH":"2026-03-02T21:54:47.667744","MEAN_MOTION":15.3020853,"ECCENTRICITY":0.000168,"INCLINATION":53.1587,"RA_OF_ASC_NODE":235.3743,"ARG_OF_PERICENTER":91.4855,"MEAN_ANOMALY":268.6338,"EPHEMERIS_TYPE":0,"CLASSIFICATION_TYPE":"U","NORAD_CAT_ID":47753,"ELEMENT_SET_NO":999,"REV_AT_EPOCH":27685,"BSTAR":0.00016530971,"MEAN_MOTION_DOT":4.541e-5,"MEAN_MOTION_DDOT":0},{"OBJECT_NAME":"STARLINK-2171","OBJECT_ID":"2021-017AJ","EPOCH":"2026-03-03T00:00:02.000160","MEAN_MOTION":15.69162205,"ECCENTRICITY":0.00044294,"INCLINATION":53.0442,"RA_OF_ASC_NODE":201.6345,"ARG_OF_PERICENTER":148.4425,"MEAN_ANOMALY":210.851,"EPHEMERIS_TYPE":0,"CLASSIFICATION_TYPE":"U","NORAD_CAT_ID":47754,"ELEMENT_SET_NO":999,"REV_AT_EPOCH":595,"BSTAR":-0.0012388495,"MEAN_MOTION_DOT":-0.00144892,"MEAN_MOTION_DDOT":0},{"OBJECT_NAME":"STARLINK-2178","OBJECT_ID":"2021-017AQ","EPOCH":"2026-03-02T22:04:43.161600","MEAN_MOTION":15.30192756,"ECCENTRICITY":0.00010616,"INCLINATION":53.161,"RA_OF_ASC_NODE":248.1811,"ARG_OF_PERICENTER":93.8653,"MEAN_ANOMALY":266.2469,"EPHEMERIS_TYPE":0,"CLASSIFICATION_TYPE":"U","NORAD_CAT_ID":47760,"ELEMENT_SET_NO":999,"REV_AT_EPOCH":27665,"BSTAR":3.634159e-5,"MEAN_MOTION_DOT":7.17e-6,"MEAN_MOTION_DDOT":0},{"OBJECT_NAME":"STARLINK-2180","OBJECT_ID":"2021-017AS","EPOCH":"2026-03-02T22:15:58.046688","MEAN_MOTION":15.30725313,"ECCENTRICITY":9.058e-5,"INCLINATION":53.1575,"RA_OF_ASC_NODE":250.7155,"ARG_OF_PERICENTER":143.8517,"MEAN_ANOMALY":216.2545,"EPHEMERIS_TYPE":0,"CLASSIFICATION_TYPE":"U","NORAD_CAT_ID":47762,"ELEMENT_SET_NO":999,"REV_AT_EPOCH":27661,"BSTAR":0.0081150554,"MEAN_MOTION_DOT":0.00252382,"MEAN_MOTION_DDOT":0},{"OBJECT_NAME":"STARLINK-2185","OBJECT_ID":"2021-017AX","EPOCH":"2026-03-02T20:34:07.604544","MEAN_MOTION":15.31023922,"ECCENTRICITY":0.00014438,"INCLINATION":53.1618,"RA_OF_ASC_NODE":236.3333,"ARG_OF_PERICENTER":84.5922,"MEAN_ANOMALY":275.5244,"EPHEMERIS_TYPE":0,"CLASSIFICATION_TYPE":"U","NORAD_CAT_ID":47767,"ELEMENT_SET_NO":999,"REV_AT_EPOCH":27683,"BSTAR":-1.517875e-6,"MEAN_MOTION_DOT":-4.09e-6,"MEAN_MOTION_DDOT":0},{"OBJECT_NAME":"STARLINK-2193","OBJECT_ID":"2021-017BA","EPOCH":"2026-03-03T00:00:02.000160","MEAN_MOTION":15.29335788,"ECCENTRICITY":0.00012876,"INCLINATION":53.1564,"RA_OF_ASC_NODE":234.8547,"ARG_OF_PERICENTER":68.8628,"MEAN_ANOMALY":270.4483,"EPHEMERIS_TYPE":0,"CLASSIFICATION_TYPE":"U","NORAD_CAT_ID":47770,"ELEMENT_SET_NO":999,"REV_AT_EPOCH":579,"BSTAR":0.0012194165,"MEAN_MOTION_DOT":0.00034975,"MEAN_MOTION_DDOT":0},{"OBJECT_NAME":"STARLINK-2194","OBJECT_ID":"2021-017BB","EPOCH":"2026-03-02T18:05:12.033600","MEAN_MOTION":15.29374727,"ECCENTRICITY":0.00011607,"INCLINATION":53.1573,"RA_OF_ASC_NODE":236.0014,"ARG_OF_PERICENTER":60.1944,"MEAN_ANOMALY":299.9172,"EPHEMERIS_TYPE":0,"CLASSIFICATION_TYPE":"U","NORAD_CAT_ID":47771,"ELEMENT_SET_NO":999,"REV_AT_EPOCH":27681,"BSTAR":-3.283114e-6,"MEAN_MOTION_DOT":-4.51e-6,"MEAN_MOTION_DDOT":0}]
